MALLIGYONG-1            
1 58400U 23179A   23362.44701852  .00007090  00000+0  31538-3 0  9994
2 58400  97.4258 246.7374 0016638 143.4653 216.7722 15.21672055  5609
